STARLINK-11718 [DTC]    
1 64132U 25111K   25155.62291239  .00309141  00000+0  12394-2 0  9996
2 64132  43.0028 211.9942 0002668 207.3164 152.7569 15.84872756  2930
STARLINK-11716 [DTC]    
1 64133U 25111L   25155.61980477  .00330143  00000+0  13219-2 0  9998
2 64133  43.0023 211.9686 0002548 248.6081 111.4520 15.84846940  2939
STARLINK-11714 [DTC]    
1 64134U 25111M   25155.63082549  .00159102  00000+0  65224-3 0  9992
2 64134  43.0027 212.0600 0002594   5.7234 354.3668 15.84803101  2871
STARLINK-11712 [DTC]    
1 64135U 25111N   25155.63035538  .00302282  00000+0  12112-2 0  9995
2 64135  43.0022 212.0567 0001604 253.5634 106.5062 15.84903169  2877
STARLINK-34254          
1 64136U 25111P   25155.57967792 -.00365454  00000+0 -24492-2 0  9991
2 64136  43.0015 212.5431 0002109 284.1364  75.9271 15.75323345  2880
STARLINK-34230          
1 64137U 25111Q   25155.57933997 -.00341870  00000+0 -22891-2 0  9999
2 64137  43.0016 212.5407 0001910 290.4571  69.6093 15.75280209  2887
STARLINK-34129          
1 64138U 25111R   25155.45184164 -.00526158  00000+0 -35748-2 0  9990
2 64138  43.0013 213.3047 0001550 271.1855  88.8837 15.75450859  2918
STARLINK-34212          
1 64139U 25111S   25155.51528431  .00854377  00000+0  45889-2 0  9999
2 64139  43.0014 212.9201 0008041 307.3285  52.6851 15.77098236  2877
STARLINK-34149          
1 64140U 25111T   25155.51490999 -.00447515  00000+0 -30395-2 0  9998
2 64140  43.0012 212.9166 0002060 301.5559  58.5109 15.75242798  2875
STARLINK-34054          
1 64141U 25111U   25155.57798921 -.00194900  00000+0 -12867-2 0  9992
2 64141  43.0013 212.5293 0001457 303.0129  57.0601 15.75188450  2889
STARLINK-34195          
1 64142U 25111V   25155.51423675 -.00210313  00000+0 -13868-2 0  9997
2 64142  43.0014 212.9114 0002316 278.0564  82.0043 15.75256917  2877
STARLINK-34133          
1 64143U 25111W   25155.51356198 -.00125096  00000+0 -81691-3 0  9996
2 64143  43.0014 212.9060 0002603 287.9008  72.1578 15.75213696  2879
STARLINK-34181          
1 64144U 25111X   25155.51389567 -.00158451  00000+0 -10379-2 0  9998
2 64144  43.0011 212.9084 0002754 278.2715  81.7842 15.75250662  2872
STARLINK-34186          
1 64145U 25111Y   25155.57664171 -.00058839  00000+0 -38136-3 0  9993
2 64145  43.0010 212.5175 0001126 289.9268  70.1480 15.75114137  2880
STARLINK-34314          
1 64146U 25112A   25155.41667824 -.01628738  00000+0 -90701-2 0  9993
2 64146  97.5970 203.9522 0001341  73.9943 356.2428 15.82341791  2370
STARLINK-33926          
1 64147U 25112B   25155.41667824 -.01641997  00000+0 -91359-2 0  9996
2 64147  97.5970 203.9528 0001348  74.4540 357.5877 15.82386106  2385
STARLINK-34213          
1 64148U 25112C   25155.41667824 -.01672213  00000+0 -93059-2 0  9991
2 64148  97.5970 203.9545 0001370  73.3628   2.4980 15.82440419  2384
STARLINK-33924          
1 64149U 25112D   25155.41667824 -.01654664  00000+0 -92074-2 0  9998
2 64149  97.5963 203.9536 0001194  71.7715   2.1896 15.82410359  2372
STARLINK-34209          
1 64150U 25112E   25155.33335648 -.01758708  00000+0 -96988-2 0  9999
2 64150  97.5968 203.8636 0001180  78.7687 244.7168 15.82806491  2405
STARLINK-34338          
1 64151U 25112F   25155.41667824 -.01707141  00000+0 -95028-2 0  9992
2 64151  97.5971 203.9565 0001409  70.1349   9.5051 15.82502942  2375
STARLINK-34348          
1 64152U 25112G   25155.41667824 -.01715450  00000+0 -95388-2 0  9994
2 64152  97.5965 203.9577 0001138  70.5700  10.8575 15.82545801  2384
STARLINK-34345          
1 64153U 25112H   25155.83335648 -.01816842  00000+0 -10691-1 0  9997
2 64153  97.5970 204.4197 0001467  88.5739 205.8841 15.80995807  2432
STARLINK-33945          
1 64154U 25112J   25155.58335648 -.01534972  66872-3 -45888-2 0  9991
2 64154  97.5993 204.1943 0001150  77.7379 343.4699 15.92436340  2371
STARLINK-34346          
1 64155U 25112K   25155.66668981 -.01501236  00000+0 -63560-2 0  9991
2 64155  97.5991 204.2766 0001543  72.4943  84.2078 15.88245764  2418
STARLINK-34277          
1 64156U 25112L   25155.33335648 -.01462196  00000+0 -58499-2 0  9993
2 64156  97.5991 203.9053 0001153  69.8593 343.9111 15.89292980  2373
STARLINK-34343          
1 64157U 25112M   25154.83335648 -.01631017  73654-3 -52931-2 0  9992
2 64157  97.5999 203.3482 0001222  68.5774   7.4146 15.90843752  2333
STARLINK-34166          
1 64158U 25112N   25155.66668981 -.01573529  00000+0 -65304-2 0  9996
2 64158  97.5989 204.2796 0001462  90.7959  72.7101 15.88304478  2306
STARLINK-34344          
1 64159U 25112P   25155.83335648 -.01619064  00000+0 -69217-2 0  9999
2 64159  97.5995 204.4683 0001345  76.3189 323.5220 15.87790728  2378
STARLINK-34339          
1 64160U 25112Q   25155.58335648 -.01490393  00000+0 -62020-2 0  9990
2 64160  97.5996 204.1866 0001263  67.5461 341.9532 15.88570870  2404
STARLINK-34341          
1 64161U 25112R   25155.58335648 -.01509906  00000+0 -62776-2 0  9990
2 64161  97.5997 204.1885 0001304  66.4440 347.3315 15.88629623  2408
STARLINK-34317          
1 64162U 25112S   25155.33335648 -.01883206  95047-3 -65234-2 0  9993
2 64162  97.6000 203.9108 0001367  51.4841  15.4479 15.89580652  2412
STARLINK-34340          
1 64163U 25112T   25155.58335648 -.01532515  00000+0 -63660-2 0  9997
2 64163  97.5999 204.1906 0001254  90.7390 327.3419 15.88696315  2409
STARLINK-34263          
1 64164U 25112U   25155.41667824 -.01625194  00000+0 -64322-2 0  9996
2 64164  97.6001 204.0059 0001496  71.8337 115.5862 15.89336256  2373
STARLINK-33793          
1 64165U 25112V   25155.83335648 -.01669299  00000+0 -71182-2 0  9995
2 64165  97.6002 204.4729 0001498  65.0411 345.4567 15.87929150  2389
STARLINK-34313          
1 64166U 25112W   25155.83335648 -.01695956  00000+0 -72253-2 0  9995
2 64166  97.6003 204.4751 0001515  63.0969 351.7243 15.87994745  2330
STARLINK-34309          
1 64167U 25112X   25155.33335648 -.01942684  10100-2 -66422-2 0  9990
2 64167  97.6000 203.9167 0001308  46.6600  31.7833 15.89849085  2374
STARLINK-34303          
1 64168U 25112Y   25155.83335648 -.01713953  00000+0 -72910-2 0  9995
2 64168  97.6005 204.4772 0001374  68.6010 350.4535 15.88059098  2488
STARLINK-34175          
1 64169U 25112Z   25155.66668981 -.01649144  00000+0 -68037-2 0  9991
2 64169  97.6004 204.2875 0001467  93.6651  86.6790 15.88554389  2352
STARLINK-34177          
1 64170U 25113A   25155.41667824 -.01024551  32390-3 -28139-2 0  9991
2 64170  53.1562 310.8322 0000506 110.5837 146.0973 15.93308681  2362
STARLINK-34228          
1 64171U 25113B   25155.33335648 -.00972422  29520-3 -26444-2 0  9995
2 64171  53.1563 311.2549 0000534  67.7230  71.8492 15.93486504  2341
STARLINK-34233          
1 64172U 25113C   25155.75002315 -.01017589  31820-3 -28760-2 0  9998
2 64172  53.1559 309.1266 0000500  52.9069 319.6719 15.92762244  2418
STARLINK-34172          
1 64173U 25113D   25155.75002315 -.01038803  33064-3 -29216-2 0  9990
2 64173  53.1561 309.1217 0000499  57.4647 317.3023 15.92859749  2372
STARLINK-34202          
1 64174U 25113E   25155.50001157 -.01044690  33599-3 -28485-2 0  9998
2 64174  53.1566 310.3918 0000408 102.9904 279.0580 15.93449831  2372
STARLINK-34231          
1 64175U 25113F   25155.66668981 -.01040229  33279-3 -28639-2 0  9990
2 64175  53.1560 309.5343 0000513  61.9054 200.6331 15.93265556  2381
STARLINK-34191          
1 64176U 25113G   25155.50001157 -.01065905  34875-3 -28940-2 0  9996
2 64176  53.1566 310.3884 0000384  89.9474 293.8426 15.93534358  2377
STARLINK-34164          
1 64177U 25113H   25155.25002315 -.01031775  33094-3 -27044-2 0  9990
2 64177  53.1565 311.6569 0000168  77.3043 315.1776 15.94191827  2337
STARLINK-34227          
1 64178U 25113J   25155.50001157 -.01092556  36594-3 -29150-2 0  9994
2 64178  53.1563 310.3718 0000303  85.5943 305.8557 15.93869106  2377
STARLINK-34194          
1 64179U 25113K   25155.16668981 -.01087770  36521-3 -28112-2 0  9990
2 64179  53.1562 312.0801 0000473  47.0553 228.4942 15.94466586  2326
STARLINK-34000          
1 64180U 25113L   25155.58335648 -.01082860  35974-3 -29029-2 0  9993
2 64180  53.1563 309.9425 0000578  60.5449  91.5683 15.93777457  2351
STARLINK-33917          
1 64181U 25113M   25155.66668981 -.01078805  35698-3 -29058-2 0  9991
2 64181  53.1558 309.5133 0000453  65.4705 207.1477 15.93687144  2404
STARLINK-34131          
1 64182U 25113N   25155.75002315 -.01088741  36257-3 -29501-2 0  9990
2 64182  53.1560 309.0845 0000470  77.3820 315.3123 15.93576280  2321
STARLINK-34188          
1 64183U 25113P   25155.50001157 -.01104860  37471-3 -28955-2 0  9999
2 64183  53.1566 310.3550 0000333  83.3246 316.1569 15.94208230  2379
STARLINK-34197          
1 64184U 25113Q   25155.50001157 -.01110523  37853-3 -28972-2 0  9996
2 64184  53.1562 310.3509 0000343  82.5711 318.9227 15.94294150  2376
STARLINK-34063          
1 64185U 25113R   25155.75002315 -.01160878  40848-3 -31016-2 0  9990
2 64185  53.1561 309.0705 0000476  65.0708 334.1519 15.93855118  2413
STARLINK-34200          
1 64186U 25113S   25155.75002315 -.01187652  42607-3 -31616-2 0  9991
2 64186  53.1558 309.0671 0000366  74.1133 326.8206 15.93928600  2411
STARLINK-33934          
1 64187U 25113T   25155.66668981 -.01161132  40995-3 -30498-2 0  9999
2 64187  53.1559 309.4884 0000448  69.1257 215.0728 15.94176218  2368
STARLINK-33929          
1 64188U 25113U   25155.50001157 -.01140108  39830-3 -29250-2 0  9999
2 64188  53.1565 310.3354 0000382  82.9208 325.8576 15.94612875  2371
STARLINK-33872          
1 64189U 25113V   25155.75002315 -.01239005  46123-3 -32591-2 0  9994
2 64189  53.1559 309.0549 0000754  50.0596 356.6717 15.94162206  2226
STARLINK-34214          
1 64190U 25113W   25155.75002315 -.01267140  48085-3 -33198-2 0  9990
2 64190  53.1559 309.0508 0000591  66.0791 342.4911 15.94242455  2411
